      2.10          N: GNSS NAV DATA                        RINEX VERSION / TYPE
fic2rin                                 12/08/2021 00:17:36 PGM / RUN BY / DATE
                                                            END OF HEADER
25 21 12  7 22  0  0.0 2.522976137698e-04 5.798028723802e-12 0.000000000000e+00
    8.600000000000e+01 5.156250000000e+01 4.387682764599e-09 2.219186154125e+00
    2.531334757805e-06 1.014183671214e-02 1.021474599838e-05 5.153747640610e+03
    2.520000000000e+05-8.195638656616e-08-2.769983499240e+00-1.732259988785e-07
    9.589905681607e-01 1.795625000000e+02 9.630598430338e-01-7.728536210269e-09
   -4.485901141503e-10 1.000000000000e+00 2.187000000000e+03 0.000000000000e+00
    2.400000000000e+00 0.000000000000e+00 5.587935447693e-09 8.600000000000e+01
    2.448000000000e+05 4.000000000000e+00
26 21 12  7 22  0  0.0 1.627993769944e-04 3.637978807092e-12 0.000000000000e+00
    8.000000000000e+01 5.250000000000e+01 5.009851537568e-09 1.573025606213e+00
    2.937391400337e-06 6.582562462427e-03 9.959563612938e-06 5.153666725159e+03
    2.520000000000e+05 3.911554813385e-08-2.815656755497e+00 1.583248376846e-07
    9.398593389025e-01 1.775000000000e+02 3.199498157884e-01-8.138196131392e-09
   -5.632377468272e-10 1.000000000000e+00 2.187000000000e+03 0.000000000000e+00
    2.400000000000e+00 0.000000000000e+00 6.984919309616e-09 8.000000000000e+01
    2.448000000000e+05 4.000000000000e+00
20 21 12  7 22  0  0.0 5.177520215511e-04-2.273736754432e-13 0.000000000000e+00
    6.200000000000e+01-1.302500000000e+02 4.704838832565e-09-1.417682241367e+00
   -6.752088665962e-06 5.453040474094e-03 6.634742021561e-06 5.153707361221e+03
    2.520000000000e+05-4.284083843231e-08 2.242177045502e-01-1.247972249985e-07
    9.411504299388e-01 2.406562500000e+02 3.057956291354e+00-8.187483898711e-09
    9.214669542259e-11 1.000000000000e+00 2.187000000000e+03 0.000000000000e+00
    2.400000000000e+00 0.000000000000e+00-8.381903171539e-09 6.200000000000e+01
    2.448000000000e+05 4.000000000000e+00
14 21 12  7 22  0  0.0-5.143741145730e-05-6.366462912410e-12 0.000000000000e+00
    1.940000000000e+02 4.959375000000e+01 4.603048878319e-09 2.399948563239e+00
    2.624467015266e-06 1.211884431541e-03 1.022219657898e-05 5.153645582199e+03
    2.520000000000e+05-5.029141902924e-08-2.724320381005e+00 1.862645149231e-08
    9.549950755610e-01 1.798750000000e+02 3.097341805747e+00-7.932116118761e-09
   -4.982350392035e-10 1.000000000000e+00 2.187000000000e+03 0.000000000000e+00
    2.400000000000e+00 0.000000000000e+00-7.916241884232e-09 1.940000000000e+02
    2.448000000000e+05 4.000000000000e+00
13 21 12  7 22  0  0.0 2.260189503431e-04 5.798028723802e-12 0.000000000000e+00
    1.630000000000e+02-8.281250000000e+00 4.466614623856e-09-8.577623234380e-01
   -3.129243850708e-07 5.744644673541e-03 8.545815944672e-06 5.153675579071e+03
    2.520000000000e+05 5.029141902924e-08 1.556812134880e+00 5.215406417847e-08
    9.679388957288e-01 2.200000000000e+02 9.790332465845e-01-7.897114660810e-09
    5.225217651289e-10 1.000000000000e+00 2.187000000000e+03 0.000000000000e+00
    2.400000000000e+00 0.000000000000e+00-1.117587089539e-08 1.630000000000e+02
    2.448000000000e+05 4.000000000000e+00
17 21 12  7 22  0  0.0 5.443058907986e-04 5.229594535194e-12 0.000000000000e+00
    8.300000000000e+01 1.187187500000e+02 4.097670684432e-09-2.955254753537e-01
    6.213784217834e-06 1.377830328420e-02 6.232410669327e-06 5.153718599319e+03
    2.520000000000e+05-1.844018697739e-07-1.656875915830e+00 6.146728992462e-08
    9.803158848801e-01 2.740000000000e+02-1.525935311914e+00-8.212842097839e-09
    1.260766801712e-10 1.000000000000e+00 2.187000000000e+03 0.000000000000e+00
    3.400000000000e+00 0.000000000000e+00-1.117587089539e-08 8.300000000000e+01
    2.448000000000e+05 4.000000000000e+00
23 21 12  7 22  0  0.0 2.437923103571e-05-4.206412995700e-12 0.000000000000e+00
    6.200000000000e+01-1.167500000000e+02 4.123028883560e-09-3.110638958667e+00
   -5.958601832390e-06 1.930380356498e-03 8.700415492058e-06 5.153696022034e+03
    2.520000000000e+05-4.656612873077e-08 3.490589041387e-01 7.450580596924e-09
    9.668507187447e-01 2.120000000000e+02 2.840453651427e+00-7.834969215059e-09
    8.250343659930e-11 1.000000000000e+00 2.187000000000e+03 0.000000000000e+00
    2.400000000000e+00 0.000000000000e+00-8.381903171539e-09 8.300000000000e+02
    2.448000000000e+05 4.000000000000e+00
18 21 12  7 22  0  0.0 2.833632752299e-04-6.366462912410e-12 0.000000000000e+00
    3.300000000000e+01-4.671875000000e+01 4.394825919283e-09-2.321326888148e+00
   -2.412125468254e-06 2.095336560160e-03 1.380220055580e-06 5.153636907578e+03
    2.520000000000e+05 9.313225746155e-09-6.501003325912e-01-2.048909664154e-08
    9.701819090222e-01 3.586875000000e+02 3.075516405112e+00-8.262844180626e-09
   -6.714565402886e-11 1.000000000000e+00 2.187000000000e+03 0.000000000000e+00
    2.400000000000e+00 0.000000000000e+00-8.381903171539e-09 5.450000000000e+02
    2.448000000000e+05 4.000000000000e+00
22 21 12  7 22  0  0.0-4.467880353332e-04 8.981260180008e-12 0.000000000000e+00
    1.900000000000e+01-1.430312500000e+02 4.806985944545e-09-1.427528979112e+00
   -7.309019565582e-06 6.774862762541e-03 7.577240467072e-06 5.153669479370e+03
    2.520000000000e+05-9.872019290924e-08 2.701012143197e-01 3.166496753693e-08
    9.378479391882e-01 2.215312500000e+02-8.726902818417e-01-8.327846888250e-09
    6.464554988949e-11 1.000000000000e+00 2.187000000000e+03 0.000000000000e+00
    2.400000000000e+00 6.300000000000e+01-1.769512891769e-08 1.900000000000e+01
    2.448000000000e+05 4.000000000000e+00
28 21 12  7 22  0  0.0 4.477081820369e-04-7.730704965070e-12 0.000000000000e+00
    7.900000000000e+01 4.765625000000e+01 4.334466262204e-09 1.626173007490e-01
    2.525746822357e-06 1.723664056044e-02 1.047924160957e-05 5.153710660934e+03
    2.520000000000e+05-2.030283212662e-07-2.672003295457e+00-1.899898052216e-07
    9.706647553746e-01 1.882812500000e+02-1.304567424447e+00-8.095694361023e-09
   -4.914490422538e-10 1.000000000000e+00 2.187000000000e+03 0.000000000000e+00
    2.400000000000e+00 6.300000000000e+01-1.117587089539e-08 7.900000000000e+01
    2.448000000000e+05 4.000000000000e+00
13 21 12  7 21 59 44.0 2.260217443109e-04 5.798028723802e-12 0.000000000000e+00
    1.100000000000e+01-8.281250000000e+00 4.466614623856e-09-8.600965028603e-01
   -3.129243850708e-07 5.744641297497e-03 8.545815944672e-06 5.153675579071e+03
    2.519840000000e+05 5.029141902924e-08 1.556812262154e+00 5.215406417847e-08
    9.679388708592e-01 2.200000000000e+02 9.790336371836e-01-7.897114660810e-09
    5.225217651289e-10 1.000000000000e+00 2.187000000000e+03 0.000000000000e+00
    2.400000000000e+00 0.000000000000e+00-1.117587089539e-08 1.100000000000e+01
    2.451900000000e+05 4.000000000000e+00
23 21 12  7 22 14 40.0 2.437643706799e-05-4.206412995700e-12 0.000000000000e+00
    6.300000000000e+01-1.173750000000e+02 4.111242678331e-09-2.982284845117e+00
   -5.980953574181e-06 1.930248574354e-03 8.679926395416e-06 5.153696260452e+03
    2.528800000000e+05-4.097819328308e-08 3.490520079429e-01 3.725290298462e-09
    9.668508065198e-01 2.129062500000e+02 2.840452914117e+00-7.830326164515e-09
    8.321775206769e-11 1.000000000000e+00 2.187000000000e+03 0.000000000000e+00
    2.400000000000e+00 0.000000000000e+00-8.381903171539e-09 8.310000000000e+02
    2.457000000000e+05 4.000000000000e+00
 2 21 12  8  0  0  0.0-6.448980420828e-04-1.364242052659e-12 0.000000000000e+00
    4.100000000000e+01-5.218750000000e+00 4.749126391605e-09-1.304578760599e+00
    9.872019290924e-08 2.059456147254e-02 1.559033989906e-06 5.153806339264e+03
    2.592000000000e+05-3.241002559662e-07-7.468219513777e-01 4.395842552185e-07
    9.647553870314e-01 3.560312500000e+02-1.472688503890e+00-8.642145694343e-09
   -6.893144269984e-11 1.000000000000e+00 2.187000000000e+03 0.000000000000e+00
    2.400000000000e+00 0.000000000000e+00-1.769512891769e-08 4.100000000000e+01
    2.520000000000e+05 4.000000000000e+00
 1 21 12  8  0  0  0.0 4.900922067463e-04-1.023181539495e-11 0.000000000000e+00
    3.400000000000e+01-4.318750000000e+01 4.042668393365e-09-1.484187158490e+00
   -2.101063728333e-06 1.115070574451e-02 1.147389411926e-06 5.153675388336e+03
    2.592000000000e+05 2.216547727585e-07-6.590042152450e-01-3.166496753693e-08
    9.864032771873e-01 3.702812500000e+02 8.862221658190e-01-8.131410134442e-09
   -1.075044779930e-10 1.000000000000e+00 2.187000000000e+03 0.000000000000e+00
    2.400000000000e+00 0.000000000000e+00 5.122274160385e-09 3.400000000000e+01
    2.520000000000e+05 4.000000000000e+00
 3 21 12  8  0  0  0.0-3.466568887234e-05-1.159605744760e-11 0.000000000000e+00
    3.800000000000e+01-1.333437500000e+02 3.903019719295e-09-2.660231205376e+00
   -6.766989827156e-06 3.853623173200e-03 9.005889296532e-06 5.153730758667e+03
    2.592000000000e+05-5.587935447693e-09 3.763029255444e-01 5.587935447693e-09
    9.719609871050e-01 2.101250000000e+02 9.985232067624e-01-7.738179469092e-09
    1.535778257043e-11 1.000000000000e+00 2.187000000000e+03 0.000000000000e+00
    2.400000000000e+00 0.000000000000e+00 1.862645149231e-09 3.800000000000e+01
    2.520000000000e+05 4.000000000000e+00
13 21 12  8  0  0  0.0 2.260631881654e-04 5.798028723802e-12 0.000000000000e+00
    1.200000000000e+01-1.518750000000e+01 4.453399787691e-09 1.923491006607e-01
   -8.028000593185e-07 5.743682151660e-03 8.730217814445e-06 5.153673618317e+03
    2.592000000000e+05 1.862645149231e-09 1.556755398528e+00 6.705522537231e-08
    9.679426407991e-01 2.171562500000e+02 9.791017287056e-01-7.882114035973e-09
    5.018066165455e-10 1.000000000000e+00 2.187000000000e+03 0.000000000000e+00
    2.400000000000e+00 0.000000000000e+00-1.117587089539e-08 1.200000000000e+01
    2.520000000000e+05 4.000000000000e+00
